start=new Date('2022-11-22T00:00:00.000Z').valueOf();
sats=[{"SITE":"AFETR","DECAY_DATE":null,"REV_AT_EPOCH":"2903","TLE_LINE2":"2 52612  53.2190 286.0075 0002702  34.8133 325.3036 15.08835878 29038","MEAN_ELEMENT_THEORY":"SGP4","OBJECT_TYPE":"PAYLOAD","EPHEMERIS_TYPE":"0","MEAN_MOTION":"15.08835878","CLASSIFICATION_TYPE":"U","MEAN_MOTION_DDOT":"0.0000000000000","ARG_OF_PERICENTER":"34.8133","INCLINATION":"53.2190","LAUNCH_DATE":"2022-05-14","MEAN_MOTION_DOT":"0.00000339","SEMIMAJOR_AXIS":"6917.893","OBJECT_NAME":"STARLINK-4002","RA_OF_ASC_NODE":"286.0075","ELEMENT_SET_NO":"999","BSTAR":"0.00003941300000","NORAD_CAT_ID":"52612","PERIAPSIS":"537.889","RCS_SIZE":"LARGE","PERIOD":"95.438","ECCENTRICITY":"0.00027020","TLE_LINE1":"1 52612U 22052Q   22325.26409786  .00000339  00000-0  39413-4 0  9992","APOAPSIS":"541.627","OBJECT_ID":"2022-052Q","GP_ID":"218401737","REF_FRAME":"TEME","TIME_SYSTEM":"UTC","CENTER_NAME":"EARTH","COUNTRY_CODE":"US","MEAN_ANOMALY":"325.3036","EPOCH":"2022-11-21T06:20:18.055104","FILE":"3666297"},{"MEAN_ELEMENT_THEORY":"SGP4","OBJECT_TYPE":"PAYLOAD","SITE":"AFETR","DECAY_DATE":null,"REV_AT_EPOCH":"2925","TLE_LINE2":"2 52613  53.2158 273.3898 0002052  46.4534 313.6628 15.08841601 29259","EPHEMERIS_TYPE":"0","MEAN_MOTION":"15.08841601","RA_OF_ASC_NODE":"273.3898","ELEMENT_SET_NO":"999","BSTAR":"0.00012486000000","NORAD_CAT_ID":"52613","CLASSIFICATION_TYPE":"U","ARG_OF_PERICENTER":"46.4534","MEAN_MOTION_DDOT":"0.0000000000000","INCLINATION":"53.2158","LAUNCH_DATE":"2022-05-14","SEMIMAJOR_AXIS":"6917.875","MEAN_MOTION_DOT":"0.00001700","OBJECT_NAME":"STARLINK-3921","REF_FRAME":"TEME","GP_ID":"218433706","TIME_SYSTEM":"UTC","CENTER_NAME":"EARTH","COUNTRY_CODE":"US","EPOCH":"2022-11-21T20:13:35.857632","MEAN_ANOMALY":"313.6628","FILE":"3666658","PERIAPSIS":"538.321","ECCENTRICITY":"0.00020520","RCS_SIZE":"LARGE","PERIOD":"95.437","APOAPSIS":"541.160","TLE_LINE1":"1 52613U 22052R   22325.84277613  .00001700  00000-0  12486-3 0  9992","OBJECT_ID":"2022-052R"},{"EPHEMERIS_TYPE":"0","MEAN_MOTION":"15.08843369","MEAN_ELEMENT_THEORY":"SGP4","OBJECT_TYPE":"PAYLOAD","REV_AT_EPOCH":"2921","SITE":"AFETR","DECAY_DATE":null,"TLE_LINE2":"2 52614  53.2187 274.5703 0002324  40.8935 319.2231 15.08843369 29216","CENTER_NAME":"EARTH","TIME_SYSTEM":"UTC","GP_ID":"218434958","REF_FRAME":"TEME","FILE":"3666658","EPOCH":"2022-11-21T13:57:21.090240","COUNTRY_CODE":"US","MEAN_ANOMALY":"319.2231","APOAPSIS":"541.343","TLE_LINE1":"1 52614U 22052S   22325.58149410 -.00000418  00000-0 -81218-5 0  9995","OBJECT_ID":"2022-052S","PERIAPSIS":"538.127","RCS_SIZE":"LARGE","ECCENTRICITY":"0.00023240","PERIOD":"95.437","RA_OF_ASC_NODE":"274.5703","BSTAR":"-0.00000812180000","NORAD_CAT_ID":"52614","ELEMENT_SET_NO":"999","INCLINATION":"53.2187","CLASSIFICATION_TYPE":"U","ARG_OF_PERICENTER":"40.8935","MEAN_MOTION_DDOT":"0.0000000000000","OBJECT_NAME":"STARLINK-3982","LAUNCH_DATE":"2022-05-14","SEMIMAJOR_AXIS":"6917.870","MEAN_MOTION_DOT":"-0.00000418"},{"EPHEMERIS_TYPE":"0","MEAN_MOTION":"15.08839156","REV_AT_EPOCH":"2904","DECAY_DATE":null,"SITE":"AFETR","TLE_LINE2":"2 52615  53.2184 288.1610 0002368  30.9677 329.1455 15.08839156 29041","OBJECT_TYPE":"PAYLOAD","MEAN_ELEMENT_THEORY":"SGP4","OBJECT_ID":"2022-052T","APOAPSIS":"541.386","TLE_LINE1":"1 52615U 22052T   22325.89475555  .00001108  00000-0  87747-4 0  9999","RCS_SIZE":"LARGE","ECCENTRICITY":"0.00023680","PERIOD":"95.438","PERIAPSIS":"538.110","TIME_SYSTEM":"UTC","CENTER_NAME":"EARTH","GP_ID":"218434705","REF_FRAME":"TEME","FILE":"3666658","COUNTRY_CODE":"US","EPOCH":"2022-11-21T21:28:26.879520","MEAN_ANOMALY":"329.1455","INCLINATION":"53.2184","MEAN_MOTION_DDOT":"0.0000000000000","ARG_OF_PERICENTER":"30.9677","CLASSIFICATION_TYPE":"U","OBJECT_NAME":"STARLINK-4011","SEMIMAJOR_AXIS":"6917.883","MEAN_MOTION_DOT":"0.00001108","LAUNCH_DATE":"2022-05-14","RA_OF_ASC_NODE":"288.1610","NORAD_CAT_ID":"52615","BSTAR":"0.00008774700000","ELEMENT_SET_NO":"999"},{"MEAN_MOTION":"15.08838393","EPHEMERIS_TYPE":"0","TLE_LINE2":"2 52616  53.2173 273.4160 0002548  30.4094 329.7046 15.08838393 29252","REV_AT_EPOCH":"2925","DECAY_DATE":null,"SITE":"AFETR","OBJECT_TYPE":"PAYLOAD","MEAN_ELEMENT_THEORY":"SGP4","OBJECT_ID":"2022-052U","TLE_LINE1":"1 52616U 22052U   22325.83909942  .00001671  00000-0  12311-3 0  9995","APOAPSIS":"541.513","PERIOD":"95.438","RCS_SIZE":"LARGE","ECCENTRICITY":"0.00025480","PERIAPSIS":"537.988","FILE":"3666658","MEAN_ANOMALY":"329.7046","COUNTRY_CODE":"US","EPOCH":"2022-11-21T20:08:18.189888","TIME_SYSTEM":"UTC","CENTER_NAME":"EARTH","REF_FRAME":"TEME","GP_ID":"218433456","OBJECT_NAME":"STARLINK-4015","MEAN_MOTION_DOT":"0.00001671","SEMIMAJOR_AXIS":"6917.885","LAUNCH_DATE":"2022-05-14","INCLINATION":"53.2173","MEAN_MOTION_DDOT":"0.0000000000000","ARG_OF_PERICENTER":"30.4094","CLASSIFICATION_TYPE":"U","NORAD_CAT_ID":"52616","BSTAR":"0.00012311000000","ELEMENT_SET_NO":"999","RA_OF_ASC_NODE":"273.4160"},{"TLE_LINE1":"1 52617U 22052V   22325.89798223  .00002222  00000-0  15772-3 0  9997","APOAPSIS":"541.371","OBJECT_ID":"2022-052V","PERIAPSIS":"538.155","ECCENTRICITY":"0.00023250","RCS_SIZE":"LARGE","PERIOD":"95.438","FILE":"3666658","MEAN_ANOMALY":"320.4265","COUNTRY_CODE":"US","EPOCH":"2022-11-21T21:33:05.664672","TIME_SYSTEM":"UTC","CENTER_NAME":"EARTH","GP_ID":"218434207","REF_FRAME":"TEME","OBJECT_NAME":"STARLINK-3996","LAUNCH_DATE":"2022-05-14","MEAN_MOTION_DOT":"0.00002222","SEMIMAJOR_AXIS":"6917.898","INCLINATION":"53.2177","CLASSIFICATION_TYPE":"U","ARG_OF_PERICENTER":"39.6897","MEAN_MOTION_DDOT":"0.0000000000000","BSTAR":"0.00015772000000","NORAD_CAT_ID":"52617","ELEMENT_SET_NO":"999","RA_OF_ASC_NODE":"273.1451","MEAN_MOTION":"15.08834234","EPHEMERIS_TYPE":"0","TLE_LINE2":"2 52617  53.2177 273.1451 0002325  39.6897 320.4265 15.08834234 29253","REV_AT_EPOCH":"2925","SITE":"AFETR","DECAY_DATE":null,"MEAN_ELEMENT_THEORY":"SGP4","OBJECT_TYPE":"PAYLOAD"},{"FILE":"3666297","EPOCH":"2022-11-21T05:44:31.288992","COUNTRY_CODE":"US","MEAN_ANOMALY":"329.3154","TIME_SYSTEM":"UTC","CENTER_NAME":"EARTH","GP_ID":"218400736","REF_FRAME":"TEME","APOAPSIS":"541.148","TLE_LINE1":"1 52618U 22052W   22325.23925103 -.00006505  00000-0 -39074-3 0  9996","OBJECT_ID":"2022-052W","PERIAPSIS":"538.230","RCS_SIZE":"LARGE","PERIOD":"95.436","ECCENTRICITY":"0.00021090","BSTAR":"-0.00039074000000","NORAD_CAT_ID":"52618","ELEMENT_SET_NO":"999","RA_OF_ASC_NODE":"276.1179","OBJECT_NAME":"STARLINK-3983","LAUNCH_DATE":"2022-05-14","SEMIMAJOR_AXIS":"6917.824","MEAN_MOTION_DOT":"-0.00006505","INCLINATION":"53.2172","CLASSIFICATION_TYPE":"U","ARG_OF_PERICENTER":"30.7962","MEAN_MOTION_DDOT":"0.0000000000000","MEAN_MOTION":"15.08858512","EPHEMERIS_TYPE":"0","MEAN_ELEMENT_THEORY":"SGP4","OBJECT_TYPE":"PAYLOAD","TLE_LINE2":"2 52618  53.2172 276.1179 0002109  30.7962 329.3154 15.08858512 29153","REV_AT_EPOCH":"2915","SITE":"AFETR","DECAY_DATE":null},{"RA_OF_ASC_NODE":"273.4724","ELEMENT_SET_NO":"999","NORAD_CAT_ID":"52619","BSTAR":"0.00006118100000","ARG_OF_PERICENTER":"29.6871","MEAN_MOTION_DDOT":"0.0000000000000","CLASSIFICATION_TYPE":"U","INCLINATION":"53.2188","SEMIMAJOR_AXIS":"6917.877","MEAN_MOTION_DOT":"0.00000685","LAUNCH_DATE":"2022-05-14","OBJECT_NAME":"STARLINK-3741","REF_FRAME":"TEME","GP_ID":"218435205","TIME_SYSTEM":"UTC","CENTER_NAME":"EARTH","COUNTRY_CODE":"US","EPOCH":"2022-11-21T19:53:46.293792","MEAN_ANOMALY":"330.4268","FILE":"3666658","PERIOD":"95.437","RCS_SIZE":"LARGE","ECCENTRICITY":"0.00025930","PERIAPSIS":"537.948","OBJECT_ID":"2022-052X","APOAPSIS":"541.536","TLE_LINE1":"1 52619U 22052X   22325.82900803  .00000685  00000-0  61181-4 0  9998","OBJECT_TYPE":"PAYLOAD","MEAN_ELEMENT_THEORY":"SGP4","DECAY_DATE":null,"SITE":"AFETR","REV_AT_EPOCH":"2924","TLE_LINE2":"2 52619  53.2188 273.4724 0002593  29.6871 330.4268 15.08841089 29240","EPHEMERIS_TYPE":"0","MEAN_MOTION":"15.08841089"},{"RA_OF_ASC_NODE":"288.1806","BSTAR":"0.00016165000000","NORAD_CAT_ID":"52620","ELEMENT_SET_NO":"999","INCLINATION":"53.2166","CLASSIFICATION_TYPE":"U","MEAN_MOTION_DDOT":"0.0000000000000","ARG_OF_PERICENTER":"33.1151","OBJECT_NAME":"STARLINK-3975","LAUNCH_DATE":"2022-05-14","SEMIMAJOR_AXIS":"6917.884","MEAN_MOTION_DOT":"0.00002285","TIME_SYSTEM":"UTC","CENTER_NAME":"EARTH","REF_FRAME":"TEME","GP_ID":"218433957","FILE":"3666658","MEAN_ANOMALY":"326.9990","COUNTRY_CODE":"US","EPOCH":"2022-11-21T21:23:08.946528","TLE_LINE1":"1 52620U 22052Y   22325.89107577  .00002285  00000-0  16165-3 0  9993","APOAPSIS":"541.393","OBJECT_ID":"2022-052Y","PERIAPSIS":"538.105","PERIOD":"95.438","RCS_SIZE":"LARGE","ECCENTRICITY":"0.00023770","MEAN_ELEMENT_THEORY":"SGP4","OBJECT_TYPE":"PAYLOAD","REV_AT_EPOCH":"2904","SITE":"AFETR","DECAY_DATE":null,"TLE_LINE2":"2 52620  53.2166 288.1806 0002377  33.1151 326.9990 15.08838818 29049","EPHEMERIS_TYPE":"0","MEAN_MOTION":"15.08838818"},{"EPHEMERIS_TYPE":"0","MEAN_MOTION":"15.08842880","MEAN_ELEMENT_THEORY":"SGP4","OBJECT_TYPE":"PAYLOAD","REV_AT_EPOCH":"2920","SITE":"AFETR","DECAY_DATE":null,"TLE_LINE2":"2 52621  53.2170 274.6977 0002443  33.1699 326.9446 15.08842880 29203","TIME_SYSTEM":"UTC","CENTER_NAME":"EARTH","REF_FRAME":"TEME","GP_ID":"218433707","FILE":"3666658","COUNTRY_CODE":"US","EPOCH":"2022-11-21T13:20:14.855136","MEAN_ANOMALY":"326.9446","APOAPSIS":"541.427","TLE_LINE1":"1 52621U 22052Z   22325.55572749  .00000718  00000-0  63190-4 0  9994","OBJECT_ID":"2022-052Z","PERIAPSIS":"538.047","PERIOD":"95.437","RCS_SIZE":"LARGE","ECCENTRICITY":"0.00024430","RA_OF_ASC_NODE":"274.6977","BSTAR":"0.00006319000000","NORAD_CAT_ID":"52621","ELEMENT_SET_NO":"999","INCLINATION":"53.2170","CLASSIFICATION_TYPE":"U","ARG_OF_PERICENTER":"33.1699","MEAN_MOTION_DDOT":"0.0000000000000","OBJECT_NAME":"STARLINK-3984","LAUNCH_DATE":"2022-05-14","MEAN_MOTION_DOT":"0.00000718","SEMIMAJOR_AXIS":"6917.872"}];
